CZ-4B R/B               
1 28059U 03049C   16270.19970956  .00000017  00000-0  16157-4 0  9994
2 28059  98.5952 144.3073 0049728 333.4399 136.1082 14.52456997685350
CZ-2C R/B               
1 28222U 04012C   16270.47117304  .00001433  00000-0  92868-4 0  9994
2 28222  97.4861 226.6516 0049431  12.0978 100.7438 15.08725218680847
SL-16 R/B               
1 28353U 04021B   16270.45601638  .00000036  00000-0  43916-4 0  9993
2 28353  71.0002 271.5455 0007267 251.0619 108.9716 14.14188950634879
CZ-2C R/B               
1 28480U 04046B   16270.34805992  .00000032  00000-0  28300-4 0  9994
2 28480  98.1905  17.6146 0140869 283.2970 144.8836 14.25607926616649
ARIANE 5 R/B            
1 28499U 04049H   16270.20190828  .00000073  00000-0  16662-4 0  9990
2 28499  98.1028 345.3801 0092263 348.6112  63.0561 14.79735824634951
CZ-2D R/B               
1 28738U 05024B   16270.55955307  .00000733  00000-0  48018-4 0  9992
2 28738  97.5329 306.1353 0012202 184.2032 175.9097 15.10742539616001
SUZAKU (ASTRO-EII)      
1 28773U 05025A   16270.27408519  .00001992  00000-0  99293-4 0  9998
2 28773  31.3824 206.9877 0005041 221.8555 138.1707 15.15084814617285
ALOS (DAICHI)           
1 28931U 06002A   16270.21867473  .00000219  00000-0  52131-4 0  9993
2 28931  97.8762 304.3734 0002355  79.6532 280.4935 14.62244292568887
H-2A R/B                
1 28932U 06002B   16270.20152020  .00000687  00000-0  70407-4 0  9993
2 28932  98.2054 176.5206 0091910  96.2061  63.6990 14.91033248578463
AKARI (ASTRO-F)         
1 28939U 06005A   16270.47901674  .00004690  00000-0  15213-3 0  9990
2 28939  98.2512  77.4868 0112290  20.2707 340.2934 15.26613669572850
RESURS-DK 1             
1 29228U 06021A   16270.73283138  .00000305  00000-0  30623-4 0  9999
2 29228  69.9361  48.2821 0004463 345.3869  14.7162 15.01992089568542
GENESIS 1               
1 29252U 06029A   16271.43787498  .00003070  00000-0  15675-3 0  9991
2 29252  64.5067  63.3343 0021031 222.0635 137.9382 15.16262092561996
CZ-4B R/B               
1 29507U 06046C   16270.50412214  .00000795  00000-0  67865-4 0  9991
2 29507  97.7928 271.8248 0044691  67.6110 292.9839 14.99874037541514
CZ-2C R/B               
1 31114U 07010B   16270.38450959  .00000001  00000-0  20026-4 0  9992
2 31114  98.4075 180.2975 0058576 261.2418  98.2122 14.19217196490099
COSMO-SKYMED 1          
1 31598U 07023A   16270.81570671  .00000427  00000-0  60189-4 0  9990
2 31598  97.8776  92.5988 0001311  84.6315 275.5052 14.82162014503436
GENESIS 2               
1 31789U 07028A   16270.95992532  .00002058  00000-0  10455-3 0  9998
2 31789  64.5051 101.9255 0050262 253.1914 106.4209 15.15504829509000
COSMOS 2428             
1 31792U 07029A   16270.50750660 -.00000389  00000-0 -18484-3 0  9995
2 31792  70.9238 245.6737 0010966 310.9460  49.0710 14.12308597476842
SL-16 R/B               
1 31793U 07029B   16270.44196574  .00000274  00000-0  16808-3 0  9996
2 31793  70.9748 223.1540 0002134 255.4278 243.4538 14.14365714477429
KORONAS-FOTON           
1 33504U 09003A   16270.51181854  .00001303  00000-0  68917-4 0  9998
2 33504  82.4422 134.9426 0018287 303.9131  56.0361 15.14477543421564
TIANGONG 1              
1 37820U 11053A   16271.50484503  .00044145  00000-0  40774-3 0  9999
2 37820  42.7620 353.8419 0014706  26.3363 333.8762 15.66510968286619
CZ-3B R/B               
1 38253U 12018D   16271.42537916  .00294839  00000-0  53987-3 0  9997
2 38253  54.9656  61.8935 3286867 293.7895  35.4290  9.03929963 99992
H-2A R/B                
1 38341U 12025E   16270.17665674  .00000251  00000-0  37548-4 0  9996
2 38341  98.4691 325.9978 0054875 287.4462  72.0756 14.83404448235730
CUSAT 2 & FALCON 9 R/B  
1 39271U 13055G   16270.52133054  .00008205  00000-0  22009-3 0  9996
2 39271  80.9676 275.1921 0648409 259.9673  92.7793 14.33204347154805
ALOS-2                  
1 39766U 14029A   16270.82031554 -.00000126  00000-0 -99492-5 0  9990
2 39766  97.9223   5.9338 0001506  86.8008 273.3395 14.79470377126667
ASTRO-H (HITOMI)        
1 41337U 16012A   16270.49567155  .00000561  00000-0  39174-4 0  9996
2 41337  31.0068 349.5543 0012602 316.5326  43.4315 14.98144081 33341
